     2              NAVIGATION DATA                         RINEX VERSION / TYPE
CCRINEXN V1.6.0 UX  CDDIS               27-NOV-06 02:51     PGM / RUN BY / DATE 
IGS BROADCAST EPHEMERIS FILE                                COMMENT             
    0.1025E-07 -0.1490E-07 -0.5960E-07  0.1192E-06          ION ALPHA           
    0.9830E+05 -0.1475E+06 -0.1966E+06  0.8520E+06          ION BETA            
   -0.931322574616E-09-0.888178419700E-15   147456     1403 DELTA-UTC: A0,A1,T,W
    14                                                      LEAP SECONDS        
                                                            END OF HEADER       
15 06 11 26  4  0  0.0 0.150104518980E-03 0.775344233261E-10 0.000000000000E+00
    0.130000000000E+02 0.329687500000E+02 0.475448375762E-08-0.108042927923E+01
    0.143982470036E-05 0.993540696800E-02 0.871345400810E-05 0.515362786865E+04
    0.144000000000E+05 0.745058059692E-08-0.287686274049E+01-0.122934579849E-06
    0.955088178593E+00 0.210281250000E+03 0.272080713057E+01-0.807605068564E-08
   -0.262868092368E-09 0.100000000000E+01 0.140300000000E+04 0.000000000000E+00
    0.113000000000E+02 0.630000000000E+02-0.279396772385E-08 0.525000000000E+03
    0.937800000000E+04 0.400000000000E+01 0.000000000000E+00 0.000000000000E+00
17 06 11 26  4  0  0.0 0.884151086211E-04-0.136424205266E-11 0.000000000000E+00
    0.226000000000E+03 0.959375000000E+01 0.478162774542E-08 0.261498533040E+01
    0.599771738052E-06 0.231298001017E-02 0.675208866596E-05 0.515374926186E+04
    0.144000000000E+05-0.117346644402E-06 0.228864624330E+01 0.484287738800E-07
    0.959786322450E+00 0.243781250000E+03 0.305015739461E+01-0.805283543292E-08
    0.235366946835E-09 0.100000000000E+01 0.140300000000E+04 0.000000000000E+00
    0.280000000000E+01 0.000000000000E+00-0.931322574616E-08 0.482000000000E+03
    0.720000000000E+04 0.000000000000E+00 0.000000000000E+00 0.000000000000E+00
18 06 11 26  4  0  0.0-0.252973753959E-03-0.454747350886E-12 0.000000000000E+00
    0.222000000000E+03 0.105250000000E+03 0.448340103736E-08-0.267796687954E+01
    0.539235770702E-05 0.779295375105E-02 0.756047666073E-05 0.515373676682E+04
    0.144000000000E+05-0.111758708954E-07-0.186157441647E+01-0.186264514923E-06
    0.955508422292E+00 0.230468750000E+03-0.259926115835E+01-0.798854704076E-08
   -0.485734518507E-10 0.100000000000E+01 0.140300000000E+04 0.000000000000E+00
    0.200000000000E+01 0.000000000000E+00-0.102445483208E-07 0.478000000000E+03
    0.862800000000E+04 0.400000000000E+01 0.000000000000E+00 0.000000000000E+00
19 06 11 26  4  0  0.0 0.381707213819E-04 0.397903932026E-11 0.000000000000E+00
    0.820000000000E+02 0.825000000000E+01 0.485234519232E-08 0.219778079823E+01
    0.415369868278E-06 0.347697397228E-02 0.681169331074E-05 0.515366961479E+04
    0.144000000000E+05 0.689178705216E-07 0.234748532486E+01-0.316649675369E-07
    0.957750047277E+00 0.245062500000E+03-0.103267747532E+01-0.800426214198E-08
    0.108575953783E-09 0.100000000000E+01 0.140300000000E+04 0.000000000000E+00
    0.200000000000E+01 0.000000000000E+00-0.144354999065E-07 0.338000000000E+03
    0.721800000000E+04 0.400000000000E+01 0.000000000000E+00 0.000000000000E+00
20 06 11 26  4  0  0.0-0.217934139073E-04 0.000000000000E+00 0.000000000000E+00
    0.208000000000E+03 0.935937500000E+02 0.453483175109E-08-0.273151719333E+01
    0.495277345181E-05 0.279723049607E-02 0.860355794430E-05 0.515364726067E+04
    0.144000000000E+05 0.335276126862E-07-0.191468005290E+01-0.111758708954E-07
    0.955042750598E+00 0.210718750000E+03 0.130316416270E+01-0.802319134098E-08
   -0.675028117631E-10 0.100000000000E+01 0.140300000000E+04 0.000000000000E+00
    0.340000000000E+01 0.000000000000E+00-0.651925802231E-08 0.464000000000E+03
    0.720600000000E+04 0.400000000000E+01 0.000000000000E+00 0.000000000000E+00
21 06 11 26  4  0  0.0 0.627902336419E-04 0.136424205266E-11 0.000000000000E+00
    0.890000000000E+02 0.311250000000E+02 0.502806640768E-08-0.136267849799E+01
    0.139325857163E-05 0.117589858128E-01 0.822730362415E-05 0.515367210197E+04
    0.144000000000E+05 0.119209289551E-06-0.291637340314E+01-0.124797224999E-06
    0.941638902674E+00 0.208718750000E+03-0.290404050634E+01-0.811533773515E-08
   -0.222509274894E-09 0.100000000000E+01 0.140300000000E+04 0.000000000000E+00
    0.280000000000E+01 0.000000000000E+00-0.116415321827E-07 0.345000000000E+03
    0.721800000000E+04 0.400000000000E+01 0.000000000000E+00 0.000000000000E+00
22 06 11 26  4  0  0.0 0.151864252985E-03 0.238742359215E-11 0.000000000000E+00
    0.155000000000E+03 0.109468750000E+03 0.454340343126E-08 0.209417358685E+01
    0.557303428650E-05 0.503277010284E-02 0.751018524170E-05 0.515368927193E+04
    0.144000000000E+05 0.614672899246E-07-0.185387061087E+01-0.875443220139E-07
    0.953071423136E+00 0.230343750000E+03-0.165726157468E+01-0.802319100046E-08
   -0.757174392629E-10 0.100000000000E+01 0.140300000000E+04 0.000000000000E+00
    0.200000000000E+01 0.000000000000E+00-0.181607902050E-07 0.155000000000E+03
    0.138120000000E+05 0.400000000000E+01 0.000000000000E+00 0.000000000000E+00
23 06 11 26  4  0  0.0 0.141246244311E-03 0.909494701773E-12 0.000000000000E+00
    0.420000000000E+02 0.293437500000E+02 0.444804242168E-08 0.121119370978E+01
    0.141374766827E-05 0.474098988343E-02 0.233016908169E-05 0.515371292305E+04
    0.144000000000E+05 0.745058059692E-08-0.856862438640E+00-0.260770320892E-07
    0.969670273905E+00 0.333375000000E+03 0.257728709598E+01-0.829820279631E-08
   -0.439304013061E-10 0.100000000000E+01 0.140300000000E+04 0.000000000000E+00
    0.280000000000E+01 0.000000000000E+00-0.214204192162E-07 0.298000000000E+03
    0.720000000000E+04 0.000000000000E+00 0.000000000000E+00 0.000000000000E+00
24 06 11 26  4  0  0.0 0.552409328520E-04 0.295585778076E-11 0.000000000000E+00
    0.203000000000E+03 0.282187500000E+02 0.469090968093E-08-0.163243477817E+01
    0.143051147461E-05 0.882881553844E-02 0.919960439205E-05 0.515541018677E+04
    0.144000000000E+05-0.271946191788E-06-0.289979353081E+01-0.447034835815E-07
    0.958284306422E+00 0.205312500000E+03-0.789712471197E+00-0.804319217410E-08
   -0.349300264044E-09 0.100000000000E+01 0.140300000000E+04 0.000000000000E+00
    0.280000000000E+01 0.000000000000E+00-0.931322574616E-09 0.203000000000E+03
    0.721800000000E+04 0.400000000000E+01 0.000000000000E+00 0.000000000000E+00
25 06 11 26  4  0  0.0 0.406721606851E-03 0.341060513165E-12 0.000000000000E+00
    0.600000000000E+01-0.102406250000E+03 0.466876581839E-08-0.772662842703E+00
   -0.530853867531E-05 0.127709663939E-01 0.527687370777E-05 0.515369845009E+04
    0.144000000000E+05-0.167638063431E-06 0.966566944822E-01 0.875443220139E-07
    0.956935909959E+00 0.279875000000E+03-0.131528269665E+01-0.849142534065E-08
   -0.507163998298E-10 0.100000000000E+01 0.140300000000E+04 0.000000000000E+00
    0.113000000000E+02 0.000000000000E+00-0.745058059692E-08 0.518000000000E+03
    0.721800000000E+04 0.400000000000E+01 0.000000000000E+00 0.000000000000E+00
26 06 11 26  4  0  0.0-0.205882824957E-04-0.164845914696E-10 0.000000000000E+00
    0.207000000000E+03 0.134687500000E+02 0.404052544696E-08 0.392939721482E+00
    0.948086380959E-06 0.175651445752E-01 0.271946191788E-05 0.515360485077E+04
    0.144000000000E+05-0.875443220139E-07-0.825729128098E+00 0.262632966042E-06
    0.991474822106E+00 0.341281250000E+03 0.822287951251E+00-0.828855953749E-08
   -0.128576784311E-09 0.100000000000E+01 0.140300000000E+04 0.000000000000E+00
    0.200000000000E+01 0.000000000000E+00-0.651925802231E-08 0.207000000000E+03
    0.721800000000E+04 0.400000000000E+01 0.000000000000E+00 0.000000000000E+00
27 06 11 26  4  0  0.0 0.799545086920E-04 0.193267624127E-11 0.000000000000E+00
    0.000000000000E+00-0.101875000000E+03 0.423160484431E-08-0.219506552426E+01
   -0.528059899807E-05 0.201769589912E-01 0.463426113129E-05 0.515357902145E+04
    0.144000000000E+05 0.296160578728E-06 0.129283127973E+00-0.987201929092E-07
    0.961499348319E+00 0.284281250000E+03-0.187979976589E+01-0.772460762022E-08
   -0.107147320530E-11 0.100000000000E+01 0.140300000000E+04 0.000000000000E+00
    0.200000000000E+01 0.000000000000E+00-0.419095158577E-08 0.000000000000E+00
    0.829800000000E+04 0.400000000000E+01 0.000000000000E+00 0.000000000000E+00
28 06 11 26  4  0  0.0 0.133928842843E-04-0.909494701773E-12 0.000000000000E+00
    0.760000000000E+02-0.456562500000E+02 0.421981862953E-08 0.286258020984E+01
   -0.237300992012E-05 0.118642356247E-01 0.979751348496E-05 0.515368438339E+04
    0.144000000000E+05 0.707805156708E-07 0.125858686615E+01-0.128522515297E-06
    0.960580069616E+00 0.190656250000E+03-0.223733985421E+01-0.756638659894E-08
    0.417874549009E-09 0.100000000000E+01 0.140300000000E+04 0.000000000000E+00
    0.280000000000E+01 0.000000000000E+00-0.102445483208E-07 0.332000000000E+03
    0.864000000000E+04 0.000000000000E+00 0.000000000000E+00 0.000000000000E+00
29 06 11 26  4  0  0.0 0.221283640712E-03 0.264890331891E-10 0.000000000000E+00
    0.191000000000E+03 0.195000000000E+02 0.404409702430E-08 0.224328140967E+01
    0.123493373394E-05 0.977478048298E-02 0.236369669437E-05 0.515360820961E+04
    0.144000000000E+05 0.197440385819E-06-0.860894606596E+00 0.707805156708E-07
    0.988012640681E+00 0.344062500000E+03-0.821239937220E+00-0.798568977889E-08
   -0.127505311108E-09 0.100000000000E+01 0.140300000000E+04 0.000000000000E+00
    0.280000000000E+01 0.000000000000E+00-0.698491930962E-08 0.447000000000E+03
    0.721800000000E+04 0.400000000000E+01 0.000000000000E+00 0.000000000000E+00
